{
    "links": {
        "self": "http://www.neowsapp.com/rest/v1/neo/3720354?api_key=iIulBulltgU6a56xZRHN4H3l9WmuAYTsLGpBGhQ2"
    },
    "id": "3720354",
    "neo_reference_id": "3720354",
    "name": "(2015 KR121)",
    "designation": "2015 KR121",
    "nasa_jpl_url": "http://ssd.jpl.nasa.gov/sbdb.cgi?sstr=3720354",
    "absolute_magnitude_h": 22.4,
    "estimated_diameter": {
        "kilometers": {
            "estimated_diameter_min": 0.0880146521,
            "estimated_diameter_max": 0.1968067451
        },
        "meters": {
            "estimated_diameter_min": 88.0146520901,
            "estimated_diameter_max": 196.8067450894
        },
        "miles": {
            "estimated_diameter_min": 0.0546897524,
            "estimated_diameter_max": 0.122290004
        },
        "feet": {
            "estimated_diameter_min": 288.7619911632,
            "estimated_diameter_max": 645.6914415591
        }
    },
    "is_potentially_hazardous_asteroid": false,
    "close_approach_data": [
        {
            "close_approach_date": "2015-05-03",
            "close_approach_date_full": "2015-May-03 12:17",
            "epoch_date_close_approach": 1430655420000,
            "relative_velocity": {
                "kilometers_per_second": "4.3337703446",
                "kilometers_per_hour": "15601.5732406429",
                "miles_per_hour": "9694.2108838872"
            },
            "miss_distance": {
                "astronomical": "0.2551887571",
                "lunar": "99.2684265119",
                "kilometers": "38175694.510107377",
                "miles": "23721276.5983687226"
            },
            "orbiting_body": "Earth"
        },
        {
            "close_approach_date": "2053-05-03",
            "close_approach_date_full": "2053-May-03 20:01",
            "epoch_date_close_approach": 2629915260000,
            "relative_velocity": {
                "kilometers_per_second": "4.1568253021",
                "kilometers_per_hour": "14964.5710875951",
                "miles_per_hour": "9298.4025182893"
            },
            "miss_distance": {
                "astronomical": "0.2584404348",
                "lunar": "100.5333291372",
                "kilometers": "38662138.567953876",
                "miles": "24023538.9198244488"
            },
            "orbiting_body": "Earth"
        }
    ],
    "orbital_data": {
        "orbit_id": "9",
        "orbit_determination_date": "2017-04-06 08:33:28",
        "first_observation_date": "2015-05-23",
        "last_observation_date": "2015-06-15",
        "data_arc_in_days": 23,
        "observations_used": 25,
        "orbit_uncertainty": "7",
        "minimum_orbit_intersection": ".248544",
        "jupiter_tisserand_invariant": "3.049",
        "epoch_osculation": "2459000.5",
        "eccentricity": ".5660861927883849",
        "semi_major_axis": "2.825746224130251",
        "inclination": "6.242720593982312",
        "ascending_node_longitude": "141.6711052630434",
        "orbital_period": "1734.994733306051",
        "perihelion_distance": "1.226130302326203",
        "perihelion_argument": "80.6161854497897",
        "aphelion_distance": "4.425362145934299",
        "perihelion_time": "2458879.092942654287",
        "mean_anomaly": "25.19116617787857",
        "mean_motion": ".2074934252474739",
        "equinox": "J2000",
        "orbit_class": {
            "orbit_class_type": "AMO",
            "orbit_class_description": "Near-Earth asteroid orbits similar to that of 1221 Amor",
            "orbit_class_range": "1.017 AU < q (perihelion) < 1.3 AU"
        }
    },
    "is_sentry_object": false
}